ELEKTRO-L 3             
1 44903U 19095A   26186.59172069 -.00000083  00000+0  00000+0 0  9996
2 44903   0.3017  82.0160 0001615  10.5962 119.9858  1.00272267 23896
GSAT-30                 
1 45026U 20005A   26186.52174108 -.00000151  00000+0  00000+0 0  9991
2 45026   0.0234  92.7918 0003457 357.8168 103.7613  1.00270817 23698
EUTELSAT KONNECT        
1 45027U 20005B   26186.00785081  .00000063  00000+0  00000+0 0  9994
2 45027   0.0675  93.9671 0002415 128.1308  70.9622  1.00271893 24517
JCSAT-17                
1 45245U 20013A   26186.59928397 -.00000304  00000+0  00000+0 0  9997
2 45245   5.3916 357.0283 0003103 120.4800 157.8463  1.00271197 23418
GEO-KOMPSAT-2B          
1 45246U 20013B   26186.53077258  .00000000  00000+0  00000+0 0  9995
2 45246   0.0134 234.8764 0000777   2.4225   5.5730  1.00269015 23460
BEIDOU-3 G2             
1 45344U 20017A   26186.59258736 -.00000128  00000+0  00000+0 0  9998
2 45344   2.8993  47.5981 0002512  49.5365 119.8708  1.00271105 23443
AEHF-6 (USA 298)        
1 45465U 20022B   26186.59836684 -.00000283  00000+0  00000+0 0  9994
2 45465   2.5097 301.3451 0041945  15.9266 319.4386  1.00275753 23197
BEIDOU-3 G3             
1 45807U 20040A   26186.63870318 -.00000341  00000+0  00000+0 0  9996
2 45807   2.4899  67.4775 0002281 334.5734 222.0681  1.00269837 22254
KOREASAT 116            
1 45920U 20048A   26186.02925759 -.00000349  00000+0  00000+0 0  9991
2 45920   0.0149 317.8047 0001084 135.8987 316.0881  1.00272945 21819
EXPRESS 80              
1 45986U 20053B   26185.99171660  .00000000  00000+0  00000+0 0  9991
2 45986   0.0199  21.4331 0001748 192.9348 145.6208  1.00270752 21815
BSAT-4B                 
1 46112U 20056A   26186.59470811  .00000000  00000+0  00000+0 0  9993
2 46112   0.0127 178.1437 0004226 311.5161 117.8554  1.00267793 21570
GALAXY 30 (G-30)        
1 46114U 20056C   26186.56685059  .00000050  00000+0  00000+0 0  9999
2 46114   0.0183  35.3707 0001999  70.3162 256.9538  1.00273371 21478
GAOFEN-13 01            
1 46610U 20071A   26186.60021405 -.00000349  00000+0  00000+0 0  9993
2 46610   0.4425  86.3328 0044937 119.9504  51.6770  1.00271489 21102
TIANTONG-1 2            
1 46916U 20082A   26186.60125406 -.00000342  00000+0  00000+0 0  9993
2 46916   0.7687 330.1028 0001625 127.3124 167.5909  1.00272315 20838
LUCAS (JDRS-1)          
1 47202U 20089A   26186.60841560 -.00000222  00000+0  00000+0 0  9992
2 47202   0.0514 266.5213 0001955 186.7027 140.1843  1.00274146 20607
SXM-7                   
1 47240U 20096A   26185.98952063 -.00000193  00000+0  00000+0 0  9990
2 47240   0.0206 100.0608 0003699  18.6089  75.4006  1.00273147  7623
TURKSAT 5A              
1 47306U 21001A   26186.01253083  .00000167  00000+0  00000+0 0  9991
2 47306   0.0125  63.1627 0000067  70.9112 184.3856  1.00271355 20144
TIANTONG-1 3            
1 47321U 21003A   26186.63436881 -.00000141  00000+0  00000+0 0  9990
2 47321   1.7422 340.4169 0003438 128.8148 124.3193  1.00272556 20140
TJS-6                   
1 47613U 21010A   26186.58310205  .00000056  00000+0  00000+0 0  9991
2 47613   0.2056 262.5209 0003312 229.5511 179.8872  1.00270976 19998
SBIRS GEO-5 (USA 315)   
1 48618U 21042A   26186.45267740 -.00000255  00000+0  00000+0 0  9995
2 48618   5.0813 329.2475 0001741 143.3025  67.6787  1.00271512 18952
FENGYUN 4B              
1 48808U 21047A   26186.65968377 -.00000316  00000+0  00000+0 0  9995
2 48808   0.1958  79.3244 0005733 276.2152 270.2989  1.00268055 18750
SXM-8                   
1 48838U 21049A   26185.98952063 -.00000192  00000+0  00000+0 0  9992
2 48838   0.0147  28.0698 0005409   5.9340 160.0675  1.00271676 18764
STAR ONE D2             
1 49055U 21069A   26186.04637368  .00000000  00000+0  00000+0 0  9999
2 49055   0.0145  15.6120 0002510 118.1295  95.9027  1.00266368 18121
EUTELSAT QUANTUM        
1 49056U 21069B   26186.58604519  .00000139  00000+0  00000+0 0  9994
2 49056   0.0141  37.2340 0002475  68.9671  76.0624  1.00273613 18115
ZHONGXING-2E            
1 49062U 21071A   26186.61102502 -.00000278  00000+0  00000+0 0  9998
2 49062   0.0432 113.6333 0001891  34.6751  93.3402  1.00272391 18226
