OBJECT_NAME,OBJECT_ID,EPOCH,MEAN_MOTION,ECCENTRICITY,INCLINATION,RA_OF_ASC_NODE,ARG_OF_PERICENTER,MEAN_ANOMALY,EPHEMERIS_TYPE,CLASSIFICATION_TYPE,NORAD_CAT_ID,ELEMENT_SET_NO,REV_AT_EPOCH,BSTAR,MEAN_MOTION_DOT,MEAN_MOTION_DDOT
ELEKTRO-L 3,2019-095A,2026-07-05T14:12:04.667616,1.00272267,.0001615,0.3017,82.0160,10.5962,119.9858,0,U,44903,999,2389,0,-.83E-6,0
GSAT-30,2020-005A,2026-07-05T12:31:18.429312,1.00270817,.0003457,0.0234,92.7918,357.8168,103.7613,0,U,45026,999,2369,0,-.151E-5,0
EUTELSAT KONNECT,2020-005B,2026-07-05T00:11:18.309120,1.00271893,.0002415,0.0675,93.9671,128.1308,70.9622,0,U,45027,999,2451,0,.63E-6,0
JCSAT-17,2020-013A,2026-07-05T14:22:58.135008,1.00271197,.00031038,5.3916,357.0283,120.4800,157.8463,0,U,45245,999,2341,0,-.304E-5,0
GEO-KOMPSAT-2B,2020-013B,2026-07-05T12:44:18.750048,1.00269015,.0000778,0.0134,234.8764,2.4225,5.5730,0,U,45246,999,2346,0,0,0
BEIDOU-3 G2,2020-017A,2026-07-05T14:13:19.547904,1.00271105,.0002512,2.8993,47.5981,49.5365,119.8708,0,U,45344,999,2344,0,-.128E-5,0
AEHF-6 (USA 298),2020-022B,2026-07-05T14:21:38.894976,1.00275753,.00419453,2.5097,301.3451,15.9266,319.4386,0,U,45465,999,2319,0,-.283E-5,0
BEIDOU-3 G3,2020-040A,2026-07-05T15:19:43.954752,1.00269837,.00022811,2.4899,67.4775,334.5734,222.0681,0,U,45807,999,2225,0,-.341E-5,0
KOREASAT 116,2020-048A,2026-07-05T00:42:07.854912,1.00272945,.0001085,0.0149,317.8047,135.8987,316.0881,0,U,45920,999,2181,0,-.349E-5,0
EXPRESS 80,2020-053B,2026-07-04T23:48:04.314240,1.00270752,.0001749,0.0199,21.4331,192.9348,145.6208,0,U,45986,999,2181,0,0,0
BSAT-4B,2020-056A,2026-07-05T14:16:22.780704,1.00267793,.0004226,0.0127,178.1437,311.5161,117.8554,0,U,46112,999,2157,0,0,0
GALAXY 30 (G-30),2020-056C,2026-07-05T13:36:15.890976,1.00273371,.00019991,0.0183,35.3707,70.3162,256.9538,0,U,46114,999,2147,0,.5E-6,0
GAOFEN-13 01,2020-071A,2026-07-05T14:24:18.493920,1.00271489,.00449376,0.4425,86.3328,119.9504,51.6770,0,U,46610,999,2110,0,-.349E-5,0
TIANTONG-1 2,2020-082A,2026-07-05T14:25:48.350784,1.00272315,.00016255,0.7687,330.1028,127.3124,167.5909,0,U,46916,999,2083,0,-.342E-5,0
LUCAS (JDRS-1),2020-089A,2026-07-05T14:36:07.107840,1.00274146,.00019557,0.0514,266.5213,186.7027,140.1843,0,U,47202,999,2060,0,-.222E-5,0
SXM-7,2020-096A,2026-07-04T23:44:54.582432,1.00273147,.00037,0.0206,100.0608,18.6089,75.4006,0,U,47240,999,762,0,-.193E-5,0
TURKSAT 5A,2021-001A,2026-07-05T00:18:02.662848,1.00271355,.0000067,0.0125,63.1627,70.9112,184.3856,0,U,47306,999,2014,0,.167E-5,0
TIANTONG-1 3,2021-003A,2026-07-05T15:13:29.465184,1.00272556,.00034385,1.7422,340.4169,128.8148,124.3193,0,U,47321,999,2014,0,-.141E-5,0
TJS-6,2021-010A,2026-07-05T13:59:40.017120,1.00270976,.00033123,0.2056,262.5209,229.5511,179.8872,0,U,47613,999,1999,0,.56E-6,0
SBIRS GEO-5 (USA 315),2021-042A,2026-07-05T10:51:51.327360,1.00271512,.0001741,5.0813,329.2475,143.3025,67.6787,0,U,48618,999,1895,0,-.255E-5,0
FENGYUN 4B,2021-047A,2026-07-05T15:49:56.677728,1.00268055,.0005733,0.1958,79.3244,276.2152,270.2989,0,U,48808,999,1875,0,-.316E-5,0
SXM-8,2021-049A,2026-07-04T23:44:54.582432,1.00271676,.0005409,0.0147,28.0698,5.9340,160.0675,0,U,48838,999,1876,0,-.192E-5,0
STAR ONE D2,2021-069A,2026-07-05T01:06:46.685088,1.00266368,.000251,0.0145,15.6120,118.1295,95.9027,0,U,49055,999,1812,0,0,0
EUTELSAT QUANTUM,2021-069B,2026-07-05T14:03:54.304416,1.00273613,.00024754,0.0141,37.2340,68.9671,76.0624,0,U,49056,999,1811,0,.139E-5,0
ZHONGXING-2E,2021-071A,2026-07-05T14:39:52.561728,1.00272391,.00018914,0.0432,113.6333,34.6751,93.3402,0,U,49062,999,1822,0,-.278E-5,0
